GSAT0101 (PRN E11)      
1 37846U 11060A   21069.84824256 -.00000083  00000-0  00000+0 0  9994
2 37846  56.7885  33.9756 0004370 336.2664  23.6873  1.70475246 58442
GSAT0102 (PRN E12)      
1 37847U 11060B   21070.66064644 -.00000084  00000-0  00000-0 0  9996
2 37847  56.7900  33.9528 0005816 319.0537 225.7015  1.70475473 58335
GSAT0103 (PRN E19)      
1 38857U 12055A   21069.88988976 -.00000023  00000-0  00000-0 0  9991
2 38857  55.0231 154.4483 0003696 257.7015 102.2891  1.70473671 52207
GSAT0104 (PRN E20)      
1 38858U 12055B   21069.82434039 -.00000023  00000-0  00000-0 0  9992
2 38858  55.0241 154.4498 0002458 260.9128  99.0910  1.70473580 52216
GSAT0201 (PRN E18)      
1 40128U 14050A   21069.12935962 -.00000113  00000-0  00000-0 0  9996
2 40128  50.5092 350.7821 1651032 108.0137 270.5923  1.85519089 42608
GSAT0202 (PRN E14)      
1 40129U 14050B   21068.85309947 -.00000113  00000-0  00000-0 0  9994
2 40129  50.5419 349.8384 1648488 108.8134 269.7104  1.85519633 44766
GSAT0203 (PRN E26)      
1 40544U 15017A   21070.80269552 -.00000085  00000-0  00000-0 0  9992
2 40544  56.5835  34.0462 0004684 277.8787  82.0401  1.70474679 36412
GSAT0204 (PRN E22)      
1 40545U 15017B   21070.58353576 -.00000084  00000-0  00000-0 0  9997
2 40545  56.5898  34.0691 0002231 266.7407  93.2062  1.70475057 37079
GSAT0205 (PRN E24)      
1 40889U 15045A   21070.23875668  .00000015  00000-0  00000-0 0  9995
2 40889  55.9475 274.7469 0005839  24.7838 335.2729  1.70475041 34212
GSAT0206 (PRN E30)      
1 40890U 15045B   21069.87167710  .00000017  00000-0  00000-0 0  9999
2 40890  55.9475 274.7535 0004002  22.2582 337.7894  1.70475126 34234
GSAT0209 (PRN E09)      
1 41174U 15079A   21069.45889187 -.00000025  00000-0  00000-0 0  9995
2 41174  55.0387 154.1602 0004115 306.7709  53.2212  1.70473808 31961
GSAT0208 (PRN E08)      
1 41175U 15079B   21069.67859116 -.00000024  00000-0  00000-0 0  9998
2 41175  55.0366 154.1534 0003342 306.0850  53.9154  1.70473871 32383
GSAT0211 (PRN E02)      
1 41549U 16030A   21069.79990441  .00000018  00000-0  00000-0 0  9993
2 41549  56.0914 274.6397 0003977 353.4555   6.5698  1.70474781 29862
GSAT0210 (PRN E01)      
1 41550U 16030B   21070.09275546  .00000016  00000-0  00000+0 0  9999
2 41550  56.0903 274.6330 0002279 333.7449  26.2727  1.70474924 29845
GSAT0207 (PRN E07)      
1 41859U 16069A   21069.75159211 -.00000024  00000-0  00000-0 0  9995
2 41859  54.6994 154.4485 0004186 291.4650  68.5213  1.70473756 26590
GSAT0212 (PRN E03)      
1 41860U 16069B   21069.60502506 -.00000025  00000-0  00000-0 0  9991
2 41860  54.6946 154.4510 0002947 316.1466  43.8600  1.70473776 26847
GSAT0213 (PRN E04)      
1 41861U 16069C   21070.55731150 -.00000018  00000-0  00000-0 0  9999
2 41861  54.6972 154.4288 0003784 267.3043  92.6891  1.70473824 26733
GSAT0214 (PRN E05)      
1 41862U 16069D   21069.53118038 -.00000025  00000-0  00000-0 0  9998
2 41862  54.6954 154.4522 0002864 271.2382  88.7585  1.70473861 26831
GSAT0215 (PRN E21)      
1 43055U 17079A   21069.43528251  .00000020  00000-0  00000-0 0  9991
2 43055  56.0663 274.4891 0001720 343.7985  16.2275  1.70474021 20178
GSAT0216 (PRN E25)      
1 43056U 17079B   21070.31442949  .00000015  00000-0  00000-0 0  9994
2 43056  56.0662 274.4644 0002939 309.1753  50.8264  1.70474195 20204
GSAT0217 (PRN E27)      
1 43057U 17079C   21069.94795987  .00000017  00000-0  00000-0 0  9997
2 43057  56.0645 274.4747 0003160 328.4999  31.5107  1.70474073 20187
GSAT0218 (PRN E31)      
1 43058U 17079D   21068.40820794  .00000026  00000-0  00000-0 0  9993
2 43058  56.0658 274.5147 0003200 300.0731  59.9291  1.70474058 20183
GSAT0221 (PRN E15)      
1 43564U 18060A   21070.06627696 -.00000083  00000-0  00000-0 0  9991
2 43564  56.9683  33.7631 0005712 288.9114  70.9998  1.70475690 16369
GSAT0222 (PRN E33)      
1 43565U 18060B   21070.28611785 -.00000084  00000-0  00000-0 0  9999
2 43565  56.9707  33.7568 0005553 295.8896  64.0258  1.70475708 16412
GSAT0219 (PRN E36)      
1 43566U 18060C   21069.92016574 -.00000083  00000-0  00000-0 0  9993
2 43566  56.9710  33.7688 0005206 295.4960  64.4237  1.70470226 16380
GSAT0220 (PRN E13)      
1 43567U 18060D   21070.13989987 -.00000083  00000-0  00000-0 0  9996
2 43567  56.9712  33.7626 0005203 293.5622  66.3561  1.70475675 16379
